OBJECT_NAME,OBJECT_ID,EPOCH,MEAN_MOTION,ECCENTRICITY,INCLINATION,RA_OF_ASC_NODE,ARG_OF_PERICENTER,MEAN_ANOMALY,EPHEMERIS_TYPE,CLASSIFICATION_TYPE,NORAD_CAT_ID,ELEMENT_SET_NO,REV_AT_EPOCH,BSTAR,MEAN_MOTION_DOT,MEAN_MOTION_DDOT
HULIANWANG DIGUI-102,2025-258G,2026-06-03T21:10:02.229600,13.29320421,.00009994,50.0028,343.1497,89.9863,270.1124,0,U,66418,999,2796,.880186E-4,-.83E-6,0
HULIANWANG DIGUI-103,2025-258H,2026-06-03T20:57:57.918528,13.29323475,.00009706,50.0021,343.0935,99.7769,260.3213,0,U,66419,999,2796,.9534565E-4,-.8E-6,0
HULIANWANG DIGUI-104,2025-258J,2026-06-03T20:45:59.811840,13.29323654,.00010342,50.0039,343.0843,89.9148,270.1843,0,U,66420,999,2795,.76047909E-4,-.89E-6,0
STARLINK-35617,2025-259A,2026-06-01T09:57:31.187520,15.27599974,.0002121,43.0038,161.7239,269.0296,91.0313,0,U,66422,999,3229,.44381353E-3,.11978E-3,0
STARLINK-35618,2025-259B,2026-06-01T09:50:07.322208,15.27588731,.00013633,43.0006,161.6850,272.3502,87.7193,0,U,66423,999,3229,.28503844E-3,.7592E-4,0
STARLINK-35588,2025-259C,2026-06-02T00:00:04.999968,15.27563029,.00013848,43.0015,158.3157,257.7485,126.2275,0,U,66424,999,588,.15111425E-2,.41534E-3,0
STARLINK-35555,2025-259D,2026-06-01T09:40:52.246272,15.27588288,.00012764,43.0009,161.6310,272.6631,87.4074,0,U,66425,999,3229,.83731166E-3,.22856E-3,0
STARLINK-35589,2025-259E,2026-06-01T23:44:33.498240,15.27615938,.00017416,43.0002,158.2885,277.2328,82.8325,0,U,66426,999,3238,.69712119E-3,.18992E-3,0
STARLINK-35611,2025-259F,2026-06-01T23:39:01.808640,15.27606809,.00003952,42.9952,158.2572,27.1995,332.8877,0,U,66427,999,3238,.12330409E-2,.33852E-3,0
STARLINK-35610,2025-259G,2026-06-01T09:26:03.975648,15.27586685,.00013541,43.0000,161.5486,268.7085,91.3611,0,U,66428,999,3229,.88613606E-3,.24208E-3,0
STARLINK-35533,2025-259H,2026-06-02T07:18:42.371712,15.27603934,.00012445,42.9988,156.3524,294.4212,65.6509,0,U,66429,999,3243,.86857255E-3,.23734E-3,0
STARLINK-35470,2025-259J,2026-06-01T10:49:07.623552,15.27591107,.00019788,43.0007,161.1253,319.5616,40.5088,0,U,66430,999,3230,.5668262E-3,.15374E-3,0
STARLINK-35439,2025-259K,2026-06-02T07:09:27.787392,15.27611731,.0000157,42.9967,156.2999,348.2243,11.8605,0,U,66431,999,3243,.63115791E-3,.17163E-3,0
STARLINK-35446,2025-259L,2026-06-02T07:07:36.288192,15.27575807,.00004482,42.9978,156.2905,283.1201,76.9601,0,U,66432,999,3243,.70654855E-3,.19229E-3,0
STARLINK-35457,2025-259M,2026-06-02T07:03:54.608256,15.27589586,.00006493,42.9960,156.2690,144.0926,215.9969,0,U,66433,999,3243,.56860975E-3,.15422E-3,0
STARLINK-35389,2025-259N,2026-06-02T07:02:03.541056,15.27592884,.00002808,42.9973,156.2608,149.6928,210.3940,0,U,66434,999,3243,.67841898E-3,.18461E-3,0
STARLINK-35502,2025-259P,2026-06-01T10:28:45.941376,15.27588651,.00019385,43.0016,161.0099,268.0043,92.0587,0,U,66435,999,3230,.63446634E-3,.17243E-3,0
STARLINK-35501,2025-259Q,2026-06-01T09:02:02.586912,15.27580315,.00014753,42.9985,161.4125,243.6094,116.4606,0,U,66436,999,3229,.5080274E-3,.13744E-3,0
STARLINK-35474,2025-259R,2026-06-01T09:51:59.885856,15.27536185,.00016163,43.0025,161.6876,265.1340,94.9327,0,U,66437,999,3229,.78346861E-3,.21331E-3,0
STARLINK-34681,2025-259S,2026-06-01T09:42:43.107840,15.27589790,.00015556,43.0026,161.6333,273.4544,86.6130,0,U,66438,999,3218,.77570415E-3,.21151E-3,0
STARLINK-35327,2025-259T,2026-06-01T01:02:00.127392,15.27609056,.00010246,42.9966,163.2118,240.5544,119.5205,0,U,66439,999,3224,.85320982E-3,.23311E-3,0
STARLINK-35405,2025-259U,2026-06-01T09:35:18.982464,15.27587846,.00016289,43.0010,161.5970,277.3804,82.6862,0,U,66440,999,3229,.54400403E-3,.14741E-3,0
STARLINK-35426,2025-259V,2026-06-01T12:32:31.354368,15.27598866,.00016824,43.0014,160.7945,279.6156,80.4506,0,U,66441,999,3231,.66055085E-3,.1797E-3,0
STARLINK-34724,2025-259W,2026-06-01T10:23:25.808640,15.27590015,.00014784,42.9998,161.8445,275.7601,84.3082,0,U,66442,999,3229,.9318116E-3,.25476E-3,0
STARLINK-35219,2025-259X,2026-06-01T10:17:52.356480,15.27603206,.00024567,43.0015,161.8176,286.5276,73.5306,0,U,66443,999,3218,.82425304E-3,.22506E-3,0
STARLINK-35360,2025-259Y,2026-06-03T03:20:32.079552,15.27631274,.00010752,42.9981,151.4227,253.4023,106.6710,0,U,66444,999,3256,.10895789E-2,.29889E-3,0
STARLINK-34698,2025-259Z,2026-06-01T08:38:10.104288,15.27609215,.00033167,43.0012,162.1596,306.1563,53.8982,0,U,66445,999,3217,.64842598E-3,.17641E-3,0
STARLINK-34986,2025-259AA,2026-06-02T00:10:28.726752,15.27596322,.00017334,43.0010,158.4148,246.9753,113.0916,0,U,66446,999,3238,.11014723E-2,.30188E-3,0
STARLINK-34851,2025-259AB,2026-06-01T10:21:34.458048,15.27594233,.00017799,43.0006,161.8327,269.9064,90.1584,0,U,66447,999,3218,.5926652E-3,.1609E-3,0
STARLINK-35355,2025-259AC,2026-06-01T10:14:10.394880,15.27595258,.00016989,43.0003,161.7934,279.0391,81.0268,0,U,66448,999,3229,.92891751E-3,.254E-3,0
