HULIANWANG DIGUI-102    
1 66418U 25258G   26154.88197025 -.00000083  00000+0  88019-4 0  9996
2 66418  50.0028 343.1497 0000999  89.9863 270.1124 13.29320421 27961
HULIANWANG DIGUI-103    
1 66419U 25258H   26154.87358702 -.00000080  00000+0  95346-4 0  9995
2 66419  50.0021 343.0935 0000970  99.7769 260.3213 13.29323475 27966
HULIANWANG DIGUI-104    
1 66420U 25258J   26154.86527560 -.00000089  00000+0  76048-4 0  9993
2 66420  50.0039 343.0843 0001034  89.9148 270.1843 13.29323654 27955
STARLINK-35617          
1 66422U 25259A   26152.41494430  .00011978  00000+0  44381-3 0  9996
2 66422  43.0038 161.7239 0002121 269.0296  91.0313 15.27599974 32290
STARLINK-35618          
1 66423U 25259B   26152.40980697  .00007592  00000+0  28504-3 0  9997
2 66423  43.0006 161.6850 0001363 272.3502  87.7193 15.27588731 32295
STARLINK-35588          
1 66424U 25259C   26153.00005787  .00041534  00000+0  15111-2 0  9996
2 66424  43.0015 158.3157 0001384 257.7485 126.2275 15.27563029  5887
STARLINK-35555          
1 66425U 25259D   26152.40338248  .00022856  00000+0  83731-3 0  9991
2 66425  43.0009 161.6310 0001276 272.6631  87.4074 15.27588288 32292
STARLINK-35589          
1 66426U 25259E   26152.98927660  .00018992  00000+0  69712-3 0  9996
2 66426  43.0002 158.2885 0001741 277.2328  82.8325 15.27615938 32387
STARLINK-35611          
1 66427U 25259F   26152.98543760  .00033852  00000+0  12330-2 0  9997
2 66427  42.9952 158.2572 0000395  27.1995 332.8877 15.27606809 32386
STARLINK-35610          
1 66428U 25259G   26152.39310157  .00024208  00000+0  88614-3 0  9999
2 66428  43.0000 161.5486 0001354 268.7085  91.3611 15.27586685 32295
STARLINK-35533          
1 66429U 25259H   26153.30465708  .00023734  00000+0  86857-3 0  9995
2 66429  42.9988 156.3524 0001244 294.4212  65.6509 15.27603934 32433
STARLINK-35470          
1 66430U 25259J   26152.45078268  .00015374  00000+0  56683-3 0  9998
2 66430  43.0007 161.1253 0001978 319.5616  40.5088 15.27591107 32301
STARLINK-35439          
1 66431U 25259K   26153.29823828  .00017163  00000+0  63116-3 0  9999
2 66431  42.9967 156.2999 0000157 348.2243  11.8605 15.27611731 32436
STARLINK-35446          
1 66432U 25259L   26153.29694778  .00019229  00000+0  70655-3 0  9991
2 66432  42.9978 156.2905 0000448 283.1201  76.9601 15.27575807 32431
STARLINK-35457          
1 66433U 25259M   26153.29438204  .00015422  00000+0  56861-3 0  9996
2 66433  42.9960 156.2690 0000649 144.0926 215.9969 15.27589586 32437
STARLINK-35389          
1 66434U 25259N   26153.29309654  .00018461  00000+0  67842-3 0  9990
2 66434  42.9973 156.2608 0000280 149.6928 210.3940 15.27592884 32438
STARLINK-35502          
1 66435U 25259P   26152.43664284  .00017243  00000+0  63447-3 0  9993
2 66435  43.0016 161.0099 0001938 268.0043  92.0587 15.27588651 32307
STARLINK-35501          
1 66436U 25259Q   26152.37641883  .00013744  00000+0  50803-3 0  9991
2 66436  42.9985 161.4125 0001475 243.6094 116.4606 15.27580315 32296
STARLINK-35474          
1 66437U 25259R   26152.41110979  .00021331  00000+0  78347-3 0  9998
2 66437  43.0025 161.6876 0001616 265.1340  94.9327 15.27536185 32295
STARLINK-34681          
1 66438U 25259S   26152.40466560  .00021151  00000+0  77570-3 0  9995
2 66438  43.0026 161.6333 0001555 273.4544  86.6130 15.27589790 32183
STARLINK-35327          
1 66439U 25259T   26152.04305703  .00023311  00000+0  85321-3 0  9990
2 66439  42.9966 163.2118 0001024 240.5544 119.5205 15.27609056 32244
STARLINK-35405          
1 66440U 25259U   26152.39952526  .00014741  00000+0  54400-3 0  9992
2 66440  43.0010 161.5970 0001628 277.3804  82.6862 15.27587846 32298
STARLINK-35426          
1 66441U 25259V   26152.52258512  .00017970  00000+0  66055-3 0  9998
2 66441  43.0014 160.7945 0001682 279.6156  80.4506 15.27598866 32319
STARLINK-34724          
1 66442U 25259W   26152.43293760  .00025476  00000+0  93181-3 0  9993
2 66442  42.9998 161.8445 0001478 275.7601  84.3082 15.27590015 32298
STARLINK-35219          
1 66443U 25259X   26152.42907820  .00022506  00000+0  82425-3 0  9992
2 66443  43.0015 161.8176 0002456 286.5276  73.5306 15.27603206 32181
STARLINK-35360          
1 66444U 25259Y   26154.13926018  .00029889  00000+0  10896-2 0  9996
2 66444  42.9981 151.4227 0001075 253.4023 106.6710 15.27631274 32568
STARLINK-34698          
1 66445U 25259Z   26152.35983917  .00017641  00000+0  64843-3 0  9995
2 66445  43.0012 162.1596 0003316 306.1563  53.8982 15.27609215 32170
STARLINK-34986          
1 66446U 25259AA  26153.00727693  .00030188  00000+0  11015-2 0  9999
2 66446  43.0010 158.4148 0001733 246.9753 113.0916 15.27596322 32386
STARLINK-34851          
1 66447U 25259AB  26152.43164882  .00016090  00000+0  59267-3 0  9999
2 66447  43.0006 161.8327 0001779 269.9064  90.1584 15.27594233 32182
STARLINK-35355          
1 66448U 25259AC  26152.42650920  .00025400  00000+0  92892-3 0  9998
2 66448  43.0003 161.7934 0001698 279.0391  81.0268 15.27595258 32296
